{
  "type": "FeatureCollection",
  "features": [
    {
      "type": "Feature",
      "properties": {
        "norad_id": 41026,
        "name": "YAOGAN-28",
        "group": "resource",
        "lat": 81.95232447183129,
        "lon": 17.151886064046312,
        "alt_km": 476.30608601809945,
        "timestamp": "2025-12-20T20:38:44.101386+00:00",
        "meta_object_name": "YAOGAN-28",
        "meta_object_id": "2015-064A",
        "meta_epoch": "2025-12-20T15:30:42.804864",
        "meta_mean_motion": 15.24471155,
        "meta_eccentricity": 0.00126239,
        "meta_inclination": 97.2811,
        "meta_ra_of_asc_node": 132.2161,
        "meta_arg_of_pericenter": 100.8666,
        "meta_mean_anomaly": 259.3993,
        "meta_ephemeris_type": 0,
        "meta_classification_type": "U",
        "meta_norad_cat_id": 41026,
        "meta_element_set_no": 999,
        "meta_rev_at_epoch": 56345,
        "meta_bstar": 0.00021466712,
        "meta_mean_motion_dot": 5.214e-05,
        "meta_mean_motion_ddot": 0,
        "tle_line1": "1 41026U 15064A   25354.64632876  .00005214  00000+0  21467-3 0  9994",
        "tle_line2": "2 41026  97.2811 132.2161 0012623 100.8666 259.3993 15.24471155563458"
      },
      "geometry": {
        "type": "Point",
        "coordinates": [
          17.151886064046312,
          81.95232447183129
        ]
      }
    },
    {
      "type": "Feature",
      "properties": {
        "norad_id": 41038,
        "name": "YAOGAN-29",
        "group": "resource",
        "lat": 57.04712676190847,
        "lon": 5.4944871088488885,
        "alt_km": 614.8683700378251,
        "timestamp": "2025-12-20T20:38:44.101397+00:00",
        "meta_object_name": "YAOGAN-29",
        "meta_object_id": "2015-069A",
        "meta_epoch": "2025-12-20T13:54:26.887104",
        "meta_mean_motion": 14.82893165,
        "meta_eccentricity": 4.778e-05,
        "meta_inclination": 98.021,
        "meta_ra_of_asc_node": 17.7767,
        "meta_arg_of_pericenter": 172.0653,
        "meta_mean_anomaly": 188.0567,
        "meta_ephemeris_type": 0,
        "meta_classification_type": "U",
        "meta_norad_cat_id": 41038,
        "meta_element_set_no": 999,
        "meta_rev_at_epoch": 54415,
        "meta_bstar": 0.0001182449,
        "meta_mean_motion_dot": 9.04e-06,
        "meta_mean_motion_ddot": 0,
        "tle_line1": "1 41038U 15069A   25354.57947786  .00000904  00000+0  11824-3 0  9990",
        "tle_line2": "2 41038  98.0210  17.7767 0000477 172.0653 188.0567 14.82893165544156"
      },
      "geometry": {
        "type": "Point",
        "coordinates": [
          5.4944871088488885,
          57.04712676190847
        ]
      }
    },
    {
      "type": "Feature",
      "properties": {
        "norad_id": 41167,
        "name": "KENT RIDGE 1",
        "group": "resource",
        "lat": 10.531538088563082,
        "lon": -73.17235364558009,
        "alt_km": 498.55945437450555,
        "timestamp": "2025-12-20T20:38:44.101407+00:00",
        "meta_object_name": "KENT RIDGE 1",
        "meta_object_id": "2015-077B",
        "meta_epoch": "2025-12-20T15:20:09.071232",
        "meta_mean_motion": 15.21692405,
        "meta_eccentricity": 0.00085261,
        "meta_inclination": 14.9782,
        "meta_ra_of_asc_node": 152.5234,
        "meta_arg_of_pericenter": 242.4554,
        "meta_mean_anomaly": 117.4901,
        "meta_ephemeris_type": 0,
        "meta_classification_type": "U",
        "meta_norad_cat_id": 41167,
        "meta_element_set_no": 999,
        "meta_rev_at_epoch": 55384,
        "meta_bstar": 0.00011665416,
        "meta_mean_motion_dot": 3.472e-05,
        "meta_mean_motion_ddot": 0,
        "tle_line1": "1 41167U 15077B   25354.63899388  .00003472  00000+0  11665-3 0  9999",
        "tle_line2": "2 41167  14.9782 152.5234 0008526 242.4554 117.4901 15.21692405553844"
      },
      "geometry": {
        "type": "Point",
        "coordinates": [
          -73.17235364558009,
          10.531538088563082
        ]
      }
    },
    {
      "type": "Feature",
      "properties": {
        "norad_id": 41194,
        "name": "GAOFEN-4",
        "group": "resource",
        "lat": 0.18356249006787734,
        "lon": 145.06452026510888,
        "alt_km": 35775.16795151661,
        "timestamp": "2025-12-20T20:38:44.101420+00:00",
        "meta_object_name": "GAOFEN-4",
        "meta_object_id": "2015-083A",
        "meta_epoch": "2025-12-19T15:27:26.627616",
        "meta_mean_motion": 1.00273138,
        "meta_eccentricity": 0.0002945,
        "meta_inclination": 0.1878,
        "meta_ra_of_asc_node": 81.7841,
        "meta_arg_of_pericenter": 93.4275,
        "meta_mean_anomaly": 250.8523,
        "meta_ephemeris_type": 0,
        "meta_classification_type": "U",
        "meta_norad_cat_id": 41194,
        "meta_element_set_no": 999,
        "meta_rev_at_epoch": 3672,
        "meta_bstar": 0,
        "meta_mean_motion_dot": -3.11e-06,
        "meta_mean_motion_ddot": 0,
        "tle_line1": "1 41194U 15083A   25353.64405819 -.00000311  00000+0  00000+0 0  9995",
        "tle_line2": "2 41194   0.1878  81.7841 0002945  93.4275 250.8523  1.00273138 36722"
      },
      "geometry": {
        "type": "Point",
        "coordinates": [
          145.06452026510888,
          0.18356249006787734
        ]
      }
    },
    {
      "type": "Feature",
      "properties": {
        "norad_id": 41240,
        "name": "JASON-3",
        "group": "resource",
        "lat": 27.21814280437376,
        "lon": -52.46842046572453,
        "alt_km": 1311.7338400117205,
        "timestamp": "2025-12-20T20:38:44.101432+00:00",
        "meta_object_name": "JASON-3",
        "meta_object_id": "2016-002A",
        "meta_epoch": "2025-12-20T14:16:37.233696",
        "meta_mean_motion": 12.87626861,
        "meta_eccentricity": 0.00072244,
        "meta_inclination": 66.0399,
        "meta_ra_of_asc_node": 141.3095,
        "meta_arg_of_pericenter": 271.2614,
        "meta_mean_anomaly": 88.7577,
        "meta_ephemeris_type": 0,
        "meta_classification_type": "U",
        "meta_norad_cat_id": 41240,
        "meta_element_set_no": 999,
        "meta_rev_at_epoch": 46425,
        "meta_bstar": -4.7364892e-05,
        "meta_mean_motion_dot": -7.4e-07,
        "meta_mean_motion_ddot": 0,
        "tle_line1": "1 41240U 16002A   25354.59487539 -.00000074  00000+0 -47365-4 0  9990",
        "tle_line2": "2 41240  66.0399 141.3095 0007224 271.2614  88.7577 12.87626861464257"
      },
      "geometry": {
        "type": "Point",
        "coordinates": [
          -52.46842046572453,
          27.21814280437376
        ]
      }
    },
    {
      "type": "Feature",
      "properties": {
        "norad_id": 41335,
        "name": "SENTINEL-3A",
        "group": "resource",
        "lat": -78.0914825942058,
        "lon": 105.82803075476755,
        "alt_km": 810.6370773147264,
        "timestamp": "2025-12-20T20:38:44.101442+00:00",
        "meta_object_name": "SENTINEL-3A",
        "meta_object_id": "2016-011A",
        "meta_epoch": "2025-12-20T14:17:45.266784",
        "meta_mean_motion": 14.26733474,
        "meta_eccentricity": 9.069e-05,
        "meta_inclination": 98.6304,
        "meta_ra_of_asc_node": 59.4985,
        "meta_arg_of_pericenter": 94.3128,
        "meta_mean_anomaly": 265.8156,
        "meta_ephemeris_type": 0,
        "meta_classification_type": "U",
        "meta_norad_cat_id": 41335,
        "meta_element_set_no": 999,
        "meta_rev_at_epoch": 51259,
        "meta_bstar": 5.646952e-05,
        "meta_mean_motion_dot": 9.3e-07,
        "meta_mean_motion_ddot": 0,
        "tle_line1": "1 41335U 16011A   25354.59566281  .00000093  00000+0  56470-4 0  9993",
        "tle_line2": "2 41335  98.6304  59.4985 0000906  94.3128 265.8156 14.26733474512596"
      },
      "geometry": {
        "type": "Point",
        "coordinates": [
          105.82803075476755,
          -78.0914825942058
        ]
      }
    },
    {
      "type": "Feature",
      "properties": {
        "norad_id": 41556,
        "name": "ZIYUAN 3-02 (ZY 3-02)",
        "group": "resource",
        "lat": -82.59037046305826,
        "lon": 159.6936176981901,
        "alt_km": 505.240252913577,
        "timestamp": "2025-12-20T20:38:44.101452+00:00",
        "meta_object_name": "ZIYUAN 3-02 (ZY 3-02)",
        "meta_object_id": "2016-033A",
        "meta_epoch": "2025-12-20T14:43:34.940640",
        "meta_mean_motion": 15.21158309,
        "meta_eccentricity": 0.00110644,
        "meta_inclination": 97.4038,
        "meta_ra_of_asc_node": 68.6499,
        "meta_arg_of_pericenter": 216.6561,
        "meta_mean_anomaly": 143.3918,
        "meta_ephemeris_type": 0,
        "meta_classification_type": "U",
        "meta_norad_cat_id": 41556,
        "meta_element_set_no": 999,
        "meta_rev_at_epoch": 53083,
        "meta_bstar": 0.00022067011,
        "meta_mean_motion_dot": 4.854e-05,
        "meta_mean_motion_ddot": 0,
        "tle_line1": "1 41556U 16033A   25354.61359885  .00004854  00000+0  22067-3 0  9998",
        "tle_line2": "2 41556  97.4038  68.6499 0011064 216.6561 143.3918 15.21158309530838"
      },
      "geometry": {
        "type": "Point",
        "coordinates": [
          159.6936176981901,
          -82.59037046305826
        ]
      }
    }
  ]
}